[{"OBJECT_NAME":"STARLINK-32601","OBJECT_ID":"2024-210Q","EPOCH":"2026-03-09T14:55:18.373152","MEAN_MOTION":15.2759574,"ECCENTRICITY":0.0001921,"INCLINATION":43.0004,"RA_OF_ASC_NODE":179.8611,"ARG_OF_PERICENTER":246.0648,"MEAN_ANOMALY":114.0002,"EPHEMERIS_TYPE":0,"CLASSIFICATION_TYPE":"U","NORAD_CAT_ID":61973,"ELEMENT_SET_NO":999,"REV_AT_EPOCH":7487,"BSTAR":0.0013424,"MEAN_MOTION_DOT":0.0003688,"MEAN_MOTION_DDOT":0},{"OBJECT_NAME":"AL MUNTHER","OBJECT_ID":"2025-052AG","EPOCH":"2026-03-09T15:29:23.207136","MEAN_MOTION":15.28381521,"ECCENTRICITY":0.0008027,"INCLINATION":97.4001,"RA_OF_ASC_NODE":323.9152,"ARG_OF_PERICENTER":130.7043,"MEAN_ANOMALY":229.4895,"EPHEMERIS_TYPE":0,"CLASSIFICATION_TYPE":"U","NORAD_CAT_ID":63240,"ELEMENT_SET_NO":999,"REV_AT_EPOCH":5479,"BSTAR":0.00065015,"MEAN_MOTION_DOT":0.00017933,"MEAN_MOTION_DDOT":0}]
